CCSDS_OMM_VERS = 2.0
CREATION_DATE  = 
ORIGINATOR     = 

OBJECT_NAME    = STARLINK-36967
OBJECT_ID      = 2026-039AD
CENTER_NAME    = EARTH
REF_FRAME      = TEME
TIME_SYSTEM    = UTC
MEAN_ELEMENT_THEORY = SGP/SGP4

EPOCH          = 2026-03-16T20:00:01.999008
MEAN_MOTION    = 15.59958472
ECCENTRICITY   = .0001562
INCLINATION    = 42.9999
RA_OF_ASC_NODE = 11.4187
ARG_OF_PERICENTER = 252.4623
MEAN_ANOMALY   = 100.9720

EPHEMERIS_TYPE = 0
CLASSIFICATION_TYPE = U
NORAD_CAT_ID   = 68013
ELEMENT_SET_NO = 999
REV_AT_EPOCH   = 402
BSTAR          = -.25544E-1
MEAN_MOTION_DOT = -.1875994E-1
MEAN_MOTION_DDOT = 0

CCSDS_OMM_VERS = 2.0
CREATION_DATE  = 
ORIGINATOR     = 

OBJECT_NAME    = STARLINK-36985
OBJECT_ID      = 2026-039AE
CENTER_NAME    = EARTH
REF_FRAME      = TEME
TIME_SYSTEM    = UTC
MEAN_ELEMENT_THEORY = SGP/SGP4

EPOCH          = 2026-03-16T20:00:01.999008
MEAN_MOTION    = 15.77092223
ECCENTRICITY   = .0001359
INCLINATION    = 42.9998
RA_OF_ASC_NODE = 10.8913
ARG_OF_PERICENTER = 255.0732
MEAN_ANOMALY   = 309.8387

EPHEMERIS_TYPE = 0
CLASSIFICATION_TYPE = U
NORAD_CAT_ID   = 68014
ELEMENT_SET_NO = 999
REV_AT_EPOCH   = 402
BSTAR          = -.13011E-1
MEAN_MOTION_DOT = -.1904399E-1
MEAN_MOTION_DDOT = 0

CCSDS_OMM_VERS = 2.0
CREATION_DATE  = 
ORIGINATOR     = 

OBJECT_NAME    = STARLINK-36335
OBJECT_ID      = 2026-040A
CENTER_NAME    = EARTH
REF_FRAME      = TEME
TIME_SYSTEM    = UTC
MEAN_ELEMENT_THEORY = SGP/SGP4

EPOCH          = 2026-03-16T20:00:01.999008
MEAN_MOTION    = 15.87423496
ECCENTRICITY   = .0001573
INCLINATION    = 97.2704
RA_OF_ASC_NODE = 24.5893
ARG_OF_PERICENTER = 89.2432
MEAN_ANOMALY   = 30.1742

EPHEMERIS_TYPE = 0
CLASSIFICATION_TYPE = U
NORAD_CAT_ID   = 68015
ELEMENT_SET_NO = 999
REV_AT_EPOCH   = 352
BSTAR          = -.57895E-2
MEAN_MOTION_DOT = -.1335275E-1
MEAN_MOTION_DDOT = 0

CCSDS_OMM_VERS = 2.0
CREATION_DATE  = 
ORIGINATOR     = 

OBJECT_NAME    = STARLINK-36923
OBJECT_ID      = 2026-040B
CENTER_NAME    = EARTH
REF_FRAME      = TEME
TIME_SYSTEM    = UTC
MEAN_ELEMENT_THEORY = SGP/SGP4

EPOCH          = 2026-03-16T06:00:02.999808
MEAN_MOTION    = 15.89148194
ECCENTRICITY   = .00012662
INCLINATION    = 97.2708
RA_OF_ASC_NODE = 23.9695
ARG_OF_PERICENTER = 99.5618
MEAN_ANOMALY   = 295.5458

EPHEMERIS_TYPE = 0
CLASSIFICATION_TYPE = U
NORAD_CAT_ID   = 68016
ELEMENT_SET_NO = 999
REV_AT_EPOCH   = 348
BSTAR          = -.50940875E-2
MEAN_MOTION_DOT = -.1286731E-1
MEAN_MOTION_DDOT = 0

CCSDS_OMM_VERS = 2.0
CREATION_DATE  = 
ORIGINATOR     = 

OBJECT_NAME    = STARLINK-36568
OBJECT_ID      = 2026-040C
CENTER_NAME    = EARTH
REF_FRAME      = TEME
TIME_SYSTEM    = UTC
MEAN_ELEMENT_THEORY = SGP/SGP4

EPOCH          = 2026-03-16T20:00:01.999008
MEAN_MOTION    = 15.87476951
ECCENTRICITY   = .0001554
INCLINATION    = 97.2704
RA_OF_ASC_NODE = 24.5954
ARG_OF_PERICENTER = 82.0944
MEAN_ANOMALY   = 50.3645

EPHEMERIS_TYPE = 0
CLASSIFICATION_TYPE = U
NORAD_CAT_ID   = 68017
ELEMENT_SET_NO = 999
REV_AT_EPOCH   = 357
BSTAR          = -.58389E-2
MEAN_MOTION_DOT = -.1348427E-1
MEAN_MOTION_DDOT = 0

CCSDS_OMM_VERS = 2.0
CREATION_DATE  = 
ORIGINATOR     = 

OBJECT_NAME    = STARLINK-36930
OBJECT_ID      = 2026-040D
CENTER_NAME    = EARTH
REF_FRAME      = TEME
TIME_SYSTEM    = UTC
MEAN_ELEMENT_THEORY = SGP/SGP4

EPOCH          = 2026-03-16T20:00:01.999008
MEAN_MOTION    = 15.87435057
ECCENTRICITY   = .0001489
INCLINATION    = 97.2701
RA_OF_ASC_NODE = 24.5914
ARG_OF_PERICENTER = 85.4726
MEAN_ANOMALY   = 38.3339

EPHEMERIS_TYPE = 0
CLASSIFICATION_TYPE = U
NORAD_CAT_ID   = 68018
ELEMENT_SET_NO = 999
REV_AT_EPOCH   = 357
BSTAR          = -.58036E-2
MEAN_MOTION_DOT = -.1338761E-1
MEAN_MOTION_DDOT = 0

CCSDS_OMM_VERS = 2.0
CREATION_DATE  = 
ORIGINATOR     = 

OBJECT_NAME    = STARLINK-36921
OBJECT_ID      = 2026-040E
CENTER_NAME    = EARTH
REF_FRAME      = TEME
TIME_SYSTEM    = UTC
MEAN_ELEMENT_THEORY = SGP/SGP4

EPOCH          = 2026-03-16T06:00:02.999808
MEAN_MOTION    = 15.89269628
ECCENTRICITY   = .00014274
INCLINATION    = 97.2711
RA_OF_ASC_NODE = 23.9754
ARG_OF_PERICENTER = 113.5813
MEAN_ANOMALY   = 293.6914

EPHEMERIS_TYPE = 0
CLASSIFICATION_TYPE = U
NORAD_CAT_ID   = 68019
ELEMENT_SET_NO = 999
REV_AT_EPOCH   = 348
BSTAR          = -.50671715E-2
MEAN_MOTION_DOT = -.1287789E-1
MEAN_MOTION_DDOT = 0

CCSDS_OMM_VERS = 2.0
CREATION_DATE  = 
ORIGINATOR     = 

OBJECT_NAME    = STARLINK-36928
OBJECT_ID      = 2026-040F
CENTER_NAME    = EARTH
REF_FRAME      = TEME
TIME_SYSTEM    = UTC
MEAN_ELEMENT_THEORY = SGP/SGP4

EPOCH          = 2026-03-16T20:00:01.999008
MEAN_MOTION    = 15.87542044
ECCENTRICITY   = .0001587
INCLINATION    = 97.2705
RA_OF_ASC_NODE = 24.5964
ARG_OF_PERICENTER = 89.0496
MEAN_ANOMALY   = 47.2633

EPHEMERIS_TYPE = 0
CLASSIFICATION_TYPE = U
NORAD_CAT_ID   = 68020
ELEMENT_SET_NO = 999
REV_AT_EPOCH   = 357
BSTAR          = -.58196E-2
MEAN_MOTION_DOT = -.1348344E-1
MEAN_MOTION_DDOT = 0

CCSDS_OMM_VERS = 2.0
CREATION_DATE  = 
ORIGINATOR     = 

OBJECT_NAME    = STARLINK-36858
OBJECT_ID      = 2026-040G
CENTER_NAME    = EARTH
REF_FRAME      = TEME
TIME_SYSTEM    = UTC
MEAN_ELEMENT_THEORY = SGP/SGP4

EPOCH          = 2026-03-16T09:25:56.313696
MEAN_MOTION    = 16.01839454
ECCENTRICITY   = .0000506
INCLINATION    = 97.2754
RA_OF_ASC_NODE = 24.2224
ARG_OF_PERICENTER = 199.7707
MEAN_ANOMALY   = 160.3553

EPHEMERIS_TYPE = 0
CLASSIFICATION_TYPE = U
NORAD_CAT_ID   = 68021
ELEMENT_SET_NO = 999
REV_AT_EPOCH   = 241
BSTAR          = -.95967E-3
MEAN_MOTION_DOT = -.540492E-2
MEAN_MOTION_DDOT = .10644E-3

CCSDS_OMM_VERS = 2.0
CREATION_DATE  = 
ORIGINATOR     = 

OBJECT_NAME    = STARLINK-36916
OBJECT_ID      = 2026-040H
CENTER_NAME    = EARTH
REF_FRAME      = TEME
TIME_SYSTEM    = UTC
MEAN_ELEMENT_THEORY = SGP/SGP4

EPOCH          = 2026-03-16T06:00:02.999808
MEAN_MOTION    = 15.89337778
ECCENTRICITY   = .0001393
INCLINATION    = 97.2707
RA_OF_ASC_NODE = 23.9782
ARG_OF_PERICENTER = 109.7187
MEAN_ANOMALY   = 306.0431

EPHEMERIS_TYPE = 0
CLASSIFICATION_TYPE = U
NORAD_CAT_ID   = 68022
ELEMENT_SET_NO = 999
REV_AT_EPOCH   = 348
BSTAR          = -.51102752E-2
MEAN_MOTION_DOT = -.1301423E-1
MEAN_MOTION_DDOT = 0

CCSDS_OMM_VERS = 2.0
CREATION_DATE  = 
ORIGINATOR     = 

OBJECT_NAME    = STARLINK-36871
OBJECT_ID      = 2026-040J
CENTER_NAME    = EARTH
REF_FRAME      = TEME
TIME_SYSTEM    = UTC
MEAN_ELEMENT_THEORY = SGP/SGP4

EPOCH          = 2026-03-16T20:00:01.999008
MEAN_MOTION    = 15.87645349
ECCENTRICITY   = .0001573
INCLINATION    = 97.2701
RA_OF_ASC_NODE = 24.6039
ARG_OF_PERICENTER = 87.2617
MEAN_ANOMALY   = 66.3201

EPHEMERIS_TYPE = 0
CLASSIFICATION_TYPE = U
NORAD_CAT_ID   = 68023
ELEMENT_SET_NO = 999
REV_AT_EPOCH   = 357
BSTAR          = -.58891E-2
MEAN_MOTION_DOT = -.1368609E-1
MEAN_MOTION_DDOT = 0

CCSDS_OMM_VERS = 2.0
CREATION_DATE  = 
ORIGINATOR     = 

OBJECT_NAME    = STARLINK-36891
OBJECT_ID      = 2026-040K
CENTER_NAME    = EARTH
REF_FRAME      = TEME
TIME_SYSTEM    = UTC
MEAN_ELEMENT_THEORY = SGP/SGP4

EPOCH          = 2026-03-16T20:00:01.999008
MEAN_MOTION    = 15.87649429
ECCENTRICITY   = .000161
INCLINATION    = 97.2703
RA_OF_ASC_NODE = 24.6063
ARG_OF_PERICENTER = 86.3142
MEAN_ANOMALY   = 72.0779

EPHEMERIS_TYPE = 0
CLASSIFICATION_TYPE = U
NORAD_CAT_ID   = 68024
ELEMENT_SET_NO = 999
REV_AT_EPOCH   = 357
BSTAR          = -.61459E-2
MEAN_MOTION_DOT = -.1420882E-1
MEAN_MOTION_DDOT = 0

