STARLINK-36967          
1 68013U 26039AD  26075.83335647 -.01875994  00000+0 -25544-1 0  9992
2 68013  42.9999  11.4187 0001562 252.4623 100.9720 15.59958472  4022
STARLINK-36985          
1 68014U 26039AE  26075.83335647 -.01904399  00000+0 -13011-1 0  9991
2 68014  42.9998  10.8913 0001359 255.0732 309.8387 15.77092223  4028
STARLINK-36335          
1 68015U 26040A   26075.83335647 -.01335275  00000+0 -57895-2 0  9994
2 68015  97.2704  24.5893 0001573  89.2432  30.1742 15.87423496  3522
STARLINK-36923          
1 68016U 26040B   26075.25003472 -.01286731  00000+0 -50941-2 0  9996
2 68016  97.2708  23.9695 0001266  99.5618 295.5458 15.89148194  3486
STARLINK-36568          
1 68017U 26040C   26075.83335647 -.01348427  00000+0 -58389-2 0  9998
2 68017  97.2704  24.5954 0001554  82.0944  50.3645 15.87476951  3575
STARLINK-36930          
1 68018U 26040D   26075.83335647 -.01338761  00000+0 -58036-2 0  9998
2 68018  97.2701  24.5914 0001489  85.4726  38.3339 15.87435057  3579
STARLINK-36921          
1 68019U 26040E   26075.25003472 -.01287789  00000+0 -50672-2 0  9994
2 68019  97.2711  23.9754 0001427 113.5813 293.6914 15.89269628  3484
STARLINK-36928          
1 68020U 26040F   26075.83335647 -.01348344  00000+0 -58196-2 0  9996
2 68020  97.2705  24.5964 0001587  89.0496  47.2633 15.87542044  3575
STARLINK-36858          
1 68021U 26040G   26075.39301289 -.00540492  10644-3 -95967-3 0  9997
2 68021  97.2754  24.2224 0000506 199.7707 160.3553 16.01839454  2411
STARLINK-36916          
1 68022U 26040H   26075.25003472 -.01301423  00000+0 -51103-2 0  9990
2 68022  97.2707  23.9782 0001393 109.7187 306.0431 15.89337778  3482
STARLINK-36871          
1 68023U 26040J   26075.83335647 -.01368609  00000+0 -58891-2 0  9997
2 68023  97.2701  24.6039 0001573  87.2617  66.3201 15.87645349  3573
STARLINK-36891          
1 68024U 26040K   26075.83335647 -.01420882  00000+0 -61459-2 0  9994
2 68024  97.2703  24.6063 0001610  86.3142  72.0779 15.87649429  3575
